[{"OBJECT_NAME":"STARLINK-4282","OBJECT_ID":"2022-076AK","EPOCH":"2026-03-09T06:40:31.844640","MEAN_MOTION":15.08833554,"ECCENTRICITY":0.00013014,"INCLINATION":53.2169,"RA_OF_ASC_NODE":85.9693,"ARG_OF_PERICENTER":91.3756,"MEAN_ANOMALY":268.7386,"EPHEMERIS_TYPE":0,"CLASSIFICATION_TYPE":"U","NORAD_CAT_ID":53019,"ELEMENT_SET_NO":999,"REV_AT_EPOCH":20292,"BSTAR":8.8256464e-5,"MEAN_MOTION_DOT":1.117e-5,"MEAN_MOTION_DDOT":0},{"OBJECT_NAME":"JILIN-1 KUANFU 02A","OBJECT_ID":"2023-127A","EPOCH":"2026-03-09T22:42:00.221760","MEAN_MOTION":15.09948681,"ECCENTRICITY":0.0009702,"INCLINATION":97.5529,"RA_OF_ASC_NODE":164.1218,"ARG_OF_PERICENTER":318.2814,"MEAN_ANOMALY":41.7675,"EPHEMERIS_TYPE":0,"CLASSIFICATION_TYPE":"U","NORAD_CAT_ID":57696,"ELEMENT_SET_NO":999,"REV_AT_EPOCH":14065,"BSTAR":0.00045097028,"MEAN_MOTION_DOT":7.263e-5,"MEAN_MOTION_DDOT":0}]
